KUIPER-00079            
1 64826U 25151L   25256.25002315 -.00010256  00000+0 -65764-3 0  9994
2 64826  51.8915   6.6221 0013021 358.0545 183.6041 15.06995345  4218
KUIPER-00080            
1 64827U 25151M   25256.25002315 -.00850432  00000+0 -59890-1 0  9994
2 64827  51.8938   6.6073 0002968  22.4807 261.0452 15.07274039  4566
KUIPER-00082            
1 64828U 25151N   25256.27479175 -.00040793  00000+0 -11506-2 0  9993
2 64828  51.8812   2.8622 0005669   1.1136 358.9861 15.35732400  9068
KUIPER-00083            
1 64829U 25151P   25256.25002315  .00029522  00000+0  14865-2 0  9996
2 64829  51.8805   4.4494 0007517   8.1647 177.2501 15.16935577  5129
KUIPER-00084            
1 64830U 25151Q   25256.25002315  .00011004  00000+0  11776-2 0  9992
2 64830  51.8970  10.3166 0009225 354.6697 132.1023 14.89106980  5685
KUIPER-00085            
1 64831U 25151R   25256.25002315 -.00685518  00000+0 -22672-1 0  9998
2 64831  51.8806   2.9473 0006702 354.3447 237.4351 15.33224723  5150
KUIPER-00086            
1 64832U 25151S   25256.25002315 -.00073565  00000+0 -43896-2 0  9994
2 64832  51.8899   5.4384 0009375   4.9310  43.7485 15.10869902  4501
KUIPER-00087            
1 64833U 25151T   25256.01799531  .00034845  00000+0  95610-3 0  9990
2 64833  51.8812   4.1434 0006589 352.9199   7.1694 15.36918238  9016
